{
    "CCSDS_OMM_VERS": "3.0",
    "COMMENT": "GENERATED VIA SPACE-TRACK.ORG API",
    "CREATION_DATE": "2025-11-24T07:26:19",
    "ORIGINATOR": "18 SPCS",
    "OBJECT_NAME": "BEIDOU 4",
    "OBJECT_ID": "2010-024A",
    "CENTER_NAME": "EARTH",
    "REF_FRAME": "TEME",
    "TIME_SYSTEM": "UTC",
    "MEAN_ELEMENT_THEORY": "SGP4",
    "EPOCH": "2025-11-23T21:16:29.584128",
    "MEAN_MOTION": "1.00269543",
    "ECCENTRICITY": "0.00040080",
    "INCLINATION": "4.0273",
    "RA_OF_ASC_NODE": "62.2017",
    "ARG_OF_PERICENTER": "315.6770",
    "MEAN_ANOMALY": "83.9407",
    "EPHEMERIS_TYPE": "0",
    "CLASSIFICATION_TYPE": "U",
    "NORAD_CAT_ID": "36590",
    "ELEMENT_SET_NO": "999",
    "REV_AT_EPOCH": "5671",
    "BSTAR": "0.00000000000000",
    "MEAN_MOTION_DOT": "-0.00000115",
    "MEAN_MOTION_DDOT": "0.0000000000000",
    "SEMIMAJOR_AXIS": "42165.360",
    "PERIOD": "1436.129",
    "APOAPSIS": "35804.125",
    "PERIAPSIS": "35770.326",
    "OBJECT_TYPE": "PAYLOAD",
    "RCS_SIZE": "LARGE",
    "COUNTRY_CODE": "PRC",
    "LAUNCH_DATE": "2010-06-02",
    "SITE": "XSC",
    "DECAY_DATE": null,
    "FILE": "4896918",
    "GP_ID": "303365274",
    "TLE_LINE0": "0 BEIDOU 4",
    "TLE_LINE1": "1 36590U 10024A   25327.88645352 -.00000115  00000-0  00000+0 0  9997",
    "TLE_LINE2": "2 36590   4.0273  62.2017 0004008 315.6770  83.9407  1.00269543 56710"
}